NOAA 1 [-]              
1 04793U 70106A   23121.80983154 -.00000030  00000+0  84656-4 0  9990
2 04793 101.5058 182.0091 0031928  63.0395  45.2200 12.54014607397490
NOAA 2 (ITOS-D) [-]     
1 06235U 72082A   23121.91243175 -.00000021  00000+0  16230-3 0  9994
2 06235 101.9901 111.5795 0003987 180.2558 234.0678 12.53161483311867
NOAA 3 [-]              
1 06920U 73086A   23121.89635591 -.00000020  00000+0  19109-3 0  9991
2 06920 102.2461 109.8355 0006942  65.4600   3.3843 12.40356234240274
NOAA 4 [-]              
1 07529U 74089A   23121.89250770 -.00000035  00000+0  70859-4 0  9999
2 07529 101.9542 107.9548 0008677 213.1012 213.1652 12.53168211216435
NOAA 5 [-]              
1 09057U 76077A   23121.92270569 -.00000023  00000+0  16770-3 0  9996
2 09057 102.1501  92.1080 0009298 273.5675 151.1021 12.37783375113143
TIROS N [-]             
1 11060U 78096A   23121.76101424  .00000225  00000+0  12933-3 0  9991
2 11060  98.5874 171.3199 0009478 310.2936  49.7411 14.18552432516737
NOAA 6 [-]              
1 11416U 79057A   23121.88649727  .00000387  00000+0  15445-3 0  9990
2 11416  98.6542 138.1428 0011101  44.2633 315.9437 14.34027095287152
NOAA 7 [-]              
1 12553U 81059A   23121.74625147  .00000075  00000+0  59439-4 0  9999
2 12553  98.9505 174.3523 0010440 292.0148  67.9917 14.17404809162886
NOAA 8 [-]              
1 13923U 83022A   23121.90125045  .00000222  00000+0  10552-3 0  9999
2 13923  98.7122 116.6555 0015101   3.1795 356.9480 14.28970211 87882
NOAA 9 [-]              
1 15427U 84123A   23121.93061618  .00000204  00000+0  12623-3 0  9992
2 15427  99.0875 105.0333 0014613 347.4888  66.5471 14.16348910981690
NOAA 10 [-]             
1 16969U 86073A   23121.92221272  .00000195  00000+0  95535-4 0  9996
2 16969  98.6024 107.7943 0013400  98.4891 315.0019 14.28351723906291
NOAA 11 [-]             
1 19531U 88089A   23121.89113600  .00000095  00000+0  69917-4 0  9998
2 19531  98.4628  99.0724 0010829 347.7945  12.2966 14.15391886785864
NOAA 12 [-]             
1 21263U 91032A   23121.89823201  .00000147  00000+0  79271-4 0  9992
2 21263  98.5318 118.0735 0014631 124.8084 235.4475 14.26109561662118
NOAA 13 [-]             
1 22739U 93050A   23121.90882131  .00000189  00000+0  12384-3 0  9999
2 22739  98.5499  91.5492 0010072 145.9930 214.1890 14.12979637532026
NOAA 14 [-]             
1 23455U 94089A   23121.93020084  .00000080  00000+0  63263-4 0  9995
2 23455  98.4284 136.0603 0010493 124.7069 235.5096 14.14267572461720
NOAA 15 [B]             
1 25338U 98030A   23122.20837823  .00000282  00000+0  13566-3 0  9999
2 25338  98.6100 152.0431 0011603  89.0972 271.1537 14.26304192298703
NOAA 16 [-]             
1 26536U 00055A   23121.89426027  .00000106  00000+0  78506-4 0  9995
2 26536  98.5876 174.0528 0009988 342.1516  17.9305 14.13422823462333
NOAA 17 [-]             
1 27453U 02032A   23122.23948536  .00000236  00000+0  11875-3 0  9993
2 27453  98.7129  69.4494 0012923  67.1162 293.1380 14.25287839 84271
NOAA 18 [B]             
1 28654U 05018A   23122.03729410  .00000239  00000+0  15197-3 0  9994
2 28654  98.9105 196.6490 0015033 147.5901 212.6197 14.12924948925056
NOAA 19 [+]             
1 33591U 09005A   23122.21762115  .00000246  00000+0  15743-3 0  9994
2 33591  99.1042 167.4008 0014001  16.9095 343.2541 14.12744329733451
SUOMI NPP [+]           
1 37849U 11061A   23122.15662900  .00000106  00000+0  71003-4 0  9990
2 37849  98.7019  61.6627 0001518  78.1686  46.9923 14.19572028596402
NOAA 20 [+]             
1 43013U 17073A   23122.23701954  .00000097  00000+0  66958-4 0  9993
2 43013  98.7502  61.3115 0000800 104.0931 256.0334 14.19544475282455
NOAA 21 (JPSS-2) [+]    
1 54234U 22150A   23121.90070034  .00000108  00000+0  72002-4 0  9993
2 54234  98.7140  60.5837 0001037 103.5245 256.6047 14.19537903 24489
